COMMENT,ORIGINATOR,NORAD_CAT_ID,OBJECT_NAME,OBJECT_TYPE,CLASSIFICATION_TYPE,INTLDES,EPOCH,EPOCH_MICROSECONDS,MEAN_MOTION,ECCENTRICITY,INCLINATION,RA_OF_ASC_NODE,ARG_OF_PERICENTER,MEAN_ANOMALY,EPHEMERIS_TYPE,ELEMENT_SET_NO,REV_AT_EPOCH,BSTAR,MEAN_MOTION_DOT,MEAN_MOTION_DDOT,FILE,TLE_LINE0,TLE_LINE1,TLE_LINE2,OBJECT_ID,OBJECT_NUMBER,SEMIMAJOR_AXIS,PERIOD,APOGEE,PERIGEE
"GENERATED VIA SPACETRACK.ORG API","JSPOC","26959","BIRD 2","PAYLOAD","U","01049C","2016-01-09 04:20:18","937536","15.31099119","0.0012231","97.7621","284.0181","78.5201","281.7411","0","999","78589","0.00013296","3.918e-05","0","1977942","0 BIRD 2","1 26959U 01049C   16009.18077474  .00003918  00000-0  13296-3 0  9994","2 26959  97.7621 284.0181 0012231  78.5201 281.7411 15.31099119785891","2001-049C","26959","6850.668","94.050","480.912","464.154"
"GENERATED VIA SPACETRACK.ORG API","JSPOC","11728","SL-12 R/B(2)","ROCKET BODY","U","80016D","2016-01-09 04:20:28","139136","0.97623716","0.0017419","14.8822","333.8554","199.2683","350.9046","0","999","8238","0","-1.62e-06","0","1978056","0 SL-12 R/B(2)","1 11728U 80016D   16009.18088124 -.00000162  00000-0  00000+0 0  9991","2 11728  14.8822 333.8554 0017419 199.2683 350.9046  0.97623716 82386","1980-016D","11728","42923.812","1475.051","36620.446","36470.908"
"GENERATED VIA SPACETRACK.ORG API","JSPOC","11862","SL-12 R/B(2)","ROCKET BODY","U","80049F","2016-01-09 04:20:28","139136","0.9793909","0.0028127","15.024","335.7426","119.4185","68.4096","0","999","8286","0","-1.77e-06","0","1978082","0 SL-12 R/B(2)","1 11862U 80049F   16009.18088124 -.00000177  00000-0  00000+0 0  9992","2 11862  15.0240 335.7426 0028127 119.4185  68.4096  0.97939090 82864","1980-049F","11862","42831.616","1470.301","36573.953","36333.008"
"GENERATED VIA SPACETRACK.ORG API","JSPOC","38341","H-2A R/B","ROCKET BODY","U","12025E","2016-01-09 04:20:34","333152","14.83128189","0.0057211","98.5021","48.9051","45.9847","314.6059","0","999","19704","6.89e-05","5.14e-06","0","1977998","0 H-2A R/B","1 38341U 12025E   16009.18095293  .00000514  00000-0  68900-4 0  9999","2 38341  98.5021  48.9051 0057211  45.9847 314.6059 14.83128189197040","2012-025E","38341","6997.604","97.092","659.503","579.435"
"GENERATED VIA SPACETRACK.ORG API","JSPOC","28521","COSMOS 2414","PAYLOAD","U","05002A","2016-01-09 04:20:39","423840","13.8756113","0.0041541","82.9474","45.6728","37.1624","323.24","0","999","55547","3.6698e-05","6e-07","0","1977923","0 COSMOS 2414","1 28521U 05002A   16009.18101185  .00000060  00000-0  36698-4 0  9998","2 28521  82.9474  45.6728 0041541  37.1624 323.2400 13.87561130555479","2005-002A","28521","7315.327","103.779","967.580","906.803"
"GENERATED VIA SPACETRACK.ORG API","JSPOC","22594","COSMOS 2241","PAYLOAD","U","93022A","2016-01-09 04:20:39","338304","4.82578661","0.5591013","61.3652","106.0565","285.4113","21.8628","0","999","17782","0.00014387","0.0007977","0","1977978","0 COSMOS 2241","1 22594U 93022A   16009.18101086  .00079770 -69875-7  14387-3 0  9998","2 22594  61.3652 106.0565 5591013 285.4113  21.8628  4.82578661177827","1993-022A","22594","14791.870","298.396","16683.889","143.581"
"GENERATED VIA SPACETRACK.ORG API","JSPOC","21533","GORIZONT 23","PAYLOAD","U","91046A","2016-01-09 04:20:41","247744","0.9891031","0.0009317","15.2625","14.7836","227.1241","280.0538","0","999","8302","0","-2.27e-06","0","1978078","0 GORIZONT 23","1 21533U 91046A   16009.18103296 -.00000227  00000-0  00000+0 0  9991","2 21533  15.2625  14.7836 0009317 227.1241 280.0538  0.98910310 83025","1991-046A","21533","42550.774","1455.864","36212.283","36132.994"
"GENERATED VIA SPACETRACK.ORG API","JSPOC","21789","COSMOS 2172","PAYLOAD","U","91079A","2016-01-09 04:20:41","247744","1.00265307","0.0006357","14.87","14.5279","252.0925","254.9845","0","999","913","0","-1.13e-06","0","1978726","0 COSMOS 2172","1 21789U 91079A   16009.18103296 -.00000113 +00000-0 +00000-0 0  9995","2 21789 014.8700 014.5279 0006357 252.0925 254.9845 01.00265307009137","1991-079A","21789","42166.548","1436.189","35815.218","35761.607"
"GENERATED VIA SPACETRACK.ORG API","JSPOC","23185","APSTAR 1","PAYLOAD","U","94043A","2016-01-09 04:20:41","247744","0.9938062","0.0004738","9.1449","45.27","255.511","220.8074","0","999","719","0","-2.11e-06","0","1978726","0 APSTAR 1","1 23185U 94043A   16009.18103296 -.00000211 +00000-0 +00000-0 0  9990","2 23185 009.1449 045.2700 0004738 255.5110 220.8074 00.99380620007194","1994-043A","23185","42416.422","1448.974","36058.384","36018.190"
"GENERATED VIA SPACETRACK.ORG API","JSPOC","40983","CZ-3B R/B","ROCKET BODY","U","15059B","2016-01-09 04:20:43","482048","7.81457699","0.3891909","26.2393","225.8789","245.1829","323.5472","0","999","211","0","4.69e-06","0","1978338","0 CZ-3B R/B","1 40983U 15059B   16009.18105882  .00000469 -75749-6  00000+0 0  9990","2 40983  26.2393 225.8789 3891909 245.1829 323.5472  7.81457699  2118","2015-059B","40983","10726.668","184.271","8523.255","173.811"
"GENERATED VIA SPACETRACK.ORG API","JSPOC","34807","RISAT-2","PAYLOAD","U","09019A","2016-01-09 04:20:45","883104","15.34491165","0.0004459","41.2144","113.1393","257.9034","176.7357","0","999","37763","0.00031353","0.00010491","0","1978035","0 RISAT-2","1 34807U 09019A   16009.18108661  .00010491  00000-0  31353-3 0  9991","2 34807  41.2144 113.1393 0004459 257.9034 176.7357 15.34491165377634","2009-019A","34807","6840.569","93.842","465.484","459.384"
"GENERATED VIA SPACETRACK.ORG API","JSPOC","39678","EGYPTSAT 2","PAYLOAD","U","14021A","2016-01-09 04:20:54","663072","14.53958718","8.37e-05","51.6188","263.4742","86.6673","273.4361","0","999","9224","0.0001","2.47e-06","0","1977934","0 EGYPTSAT 2","1 39678U 14021A   16009.18118823  .00000247  00000-0  10000-3 0  9996","2 39678  51.6188 263.4742 0000837  86.6673 273.4361 14.53958718 92240","2014-021A","39678","7090.885","99.039","713.343","712.156"
"GENERATED VIA SPACETRACK.ORG API","JSPOC","33495","KAGAYAKI","PAYLOAD","U","09002D","2016-01-09 04:20:59","227584","14.718764","0.0006983","98.2514","148.0924","248.0803","236.6762","0","999","37361","3.2971e-05","1.54e-06","0","1977984","0 KAGAYAKI","1 33495U 09002D   16009.18124106  .00000154  00000-0  32971-4 0  9990","2 33495  98.2514 148.0924 0006983 248.0803 236.6762 14.71876400373614","2009-002D","33495","7033.221","97.834","659.997","650.174"
"GENERATED VIA SPACETRACK.ORG API","JSPOC","40979","FLOCK 2B 13","PAYLOAD","U","98067HM","2016-01-09 04:21:20","163168","15.62724067","0.0007713","51.641","132.9387","343.9481","16.1268","0","999","1456","0.00030413","0.00027443","0","1977945","0 FLOCK 2B 13","1 40979U 98067HM  16009.18148337  .00027443  00000-0  30413-3 0  9994","2 40979  51.6410 132.9387 0007713 343.9481  16.1268 15.62724067 14561","1998-067HM","40979","6757.929","92.146","385.006","374.581"
"GENERATED VIA SPACETRACK.ORG API","JSPOC","13033","COSMOS 1333","PAYLOAD","U","82003A","2016-01-09 04:21:21","415104","13.73167585","0.0031964","82.9432","101.109","354.776","26.3721","0","999","70327","1.9805e-05","3.3e-07","0","1977903","0 COSMOS 1333","1 13033U 82003A   16009.18149786  .00000033  00000-0  19805-4 0  9996","2 13033  82.9432 101.1090 0031964 354.7760  26.3721 13.73167585703273","1982-003A","13033","7366.357","104.867","1011.768","964.677"
"GENERATED VIA SPACETRACK.ORG API","JSPOC","40261","SJ-11-07","PAYLOAD","U","14059A","2016-01-09 04:21:27","609984","14.60506699","0.0012715","98.0955","97.142","190.6227","169.4714","0","999","6828","5.5273e-05","2.22e-06","0","1977973","0 SJ-11-07","1 40261U 14059A   16009.18156956  .00000222  00000-0  55273-4 0  9991","2 40261  98.0955  97.1420 0012715 190.6227 169.4714 14.60506699 68289","2014-059A","40261","7069.675","98.595","700.529","682.551"
"GENERATED VIA SPACETRACK.ORG API","JSPOC","29526","ARABSAT 4B","PAYLOAD","U","06051A","2016-01-09 04:21:31","65984","1.00272634","0.0005428","0.047","342.6564","320.3139","256.5482","0","999","3366","0","1.51e-06","0","1978121","0 ARABSAT 4B","1 29526U 06051A   16009.18160956  .00000151  00000-0  00000+0 0  9994","2 29526   0.0470 342.6564 0005428 320.3139 256.5482  1.00272634 33662","2006-051A","29526","42164.493","1436.084","35809.245","35763.472"
"GENERATED VIA SPACETRACK.ORG API","JSPOC","11289","SL-3 R/B","ROCKET BODY","U","79021B","2016-01-09 04:21:34","545312","14.11526532","0.0074668","81.2479","316.3253","283.5465","75.7396","0","999","89676","3.5803e-05","7.8e-07","0","1978029","0 SL-3 R/B","1 11289U 79021B   16009.18164983  .00000078  00000-0  35803-4 0  9994","2 11289  81.2479 316.3253 0074668 283.5465  75.7396 14.11526532896764","1979-021B","11289","7232.289","102.017","908.156","800.152"
"GENERATED VIA SPACETRACK.ORG API","JSPOC","28891","TOPSAT","PAYLOAD","U","05043B","2016-01-09 04:21:35","529408","14.61131319","0.0017066","97.8269","185.1189","16.3419","343.8318","0","999","54368","3.2547e-05","1.17e-06","0","1978036","0 TOPSAT","1 28891U 05043B   16009.18166122  .00000117  00000-0  32547-4 0  9997","2 28891  97.8269 185.1189 0017066  16.3419 343.8318 14.61131319543684","2005-043B","28891","7067.660","98.553","701.587","677.463"
"GENERATED VIA SPACETRACK.ORG API","JSPOC","19650","SL-16 R/B","ROCKET BODY","U","88102B","2016-01-09 04:21:36","608544","14.1572809","0.0016621","70.9997","39.0117","262.4974","97.4261","0","999","40168","0.00014606","2.39e-06","0","1977909","0 SL-16 R/B","1 19650U 88102B   16009.18167371  .00000239  00000-0  14606-3 0  9994","2 19650  70.9997  39.0117 0016621 262.4974  97.4261 14.15728090401680","1988-102B","19650","7217.973","101.714","851.835","827.841"
